STARLINK-36301          
1 67932U 26037A   26069.16668981 -.00024248  00000+0 -11297-3 0  9997
2 67932  42.9989 195.6543 0002175 262.0503 209.5037 15.82008419  3182
STARLINK-36852          
1 67933U 26037B   26069.16668981 -.00039755  00000+0 -18702-3 0  9995
2 67933  42.9988 195.6433 0001818 264.4866 211.3234 15.82027464  3272
STARLINK-36861          
1 67934U 26037C   26069.16668981 -.00019542  00000+0 -90541-4 0  9990
2 67934  42.9987 195.6325 0001923 244.3383 235.7646 15.82000083  3275
STARLINK-36860          
1 67935U 26037D   26069.16668981  .00004732  00000+0  25007-4 0  9999
2 67935  42.9988 195.6222 0001789 248.4570 235.9107 15.82002362  3272
STARLINK-36848          
1 67936U 26037E   26069.16668981 -.00041474  00000+0 -19534-3 0  9993
2 67936  42.9987 195.6000 0001662 273.6794 219.2306 15.82018774  3274
STARLINK-36370          
1 67937U 26037F   26069.16668981 -.00003111  00000+0 -12250-4 0  9999
2 67937  42.9988 195.6121 0002052 293.1048 195.5347 15.82001506  3279
STARLINK-36371          
1 67938U 26037G   26069.16668981 -.00045886  00000+0 -21658-3 0  9996
2 67938  42.9985 195.5888 0001764 250.0167 247.1805 15.82010594  3279
STARLINK-36246          
1 67939U 26037H   26069.16668981 -.00030491  00000+0 -14272-3 0  9997
2 67939  42.9987 195.5783 0002043 274.7577 226.6852 15.82022399  3185
STARLINK-36907          
1 67940U 26037J   26069.16668981 -.00036041  00000+0 -16931-3 0  9990
2 67940  42.9987 195.5453 0001435 274.4870 239.7854 15.82019489  3271
STARLINK-36927          
1 67941U 26037K   26069.16668981 -.00024598  00000+0 -11467-3 0  9994
2 67941  42.9987 195.5237 0001725 278.3332 244.4921 15.82005345  3274
STARLINK-36914          
1 67942U 26037L   26069.16668981 -.00019482  00000+0 -90239-4 0  9996
2 67942  42.9986 195.5671 0002055 259.8638 245.8655 15.82002734  3274
STARLINK-36851          
1 67943U 26037M   26069.16668981 -.00019597  00000+0 -90788-4 0  9993
2 67943  42.9989 195.5563 0001743 263.0980 246.9086 15.82004367  3272
STARLINK-36892          
1 67944U 26037N   26069.16668981 -.00083987  00000+0 -39976-3 0  9999
2 67944  42.9986 195.5351 0002033 280.4619 238.0891 15.82037022  3270
STARLINK-36908          
1 67945U 26037P   26069.16668981 -.00016432  00000+0 -75648-4 0  9998
2 67945  42.9987 195.5130 0001728 268.3125 258.7843 15.82016292  3276
STARLINK-36909          
1 67946U 26037Q   26069.16668981 -.00042189  00000+0 -19873-3 0  9994
2 67946  42.9987 195.5024 0001782 279.2915 252.0777 15.82022366  3279
STARLINK-36920          
1 67947U 26037R   26069.16668981 -.00047409  00000+0 -22372-3 0  9993
2 67947  42.9988 195.4911 0001583 275.6430 259.9968 15.82027867  3275
